{"type": "FeatureCollection", "features": [ {"type": "Feature", "properties": {"norad_id": 34818, "name": "COSMOS 2251 DEB", "group": "cosmos-2251-debris", "lat": -30.320989737722652, "lon": -57.6889424700578, "alt_km": 766.0582038522498, "timestamp": "2025-12-04T13:52:00.836905+00:00", "meta": {"OBJECT_NAME": "COSMOS 2251 DEB", "OBJECT_ID": "1993-036ABH", "EPOCH": "2025-12-02T09:14:30.798816", "MEAN_MOTION": 14.36943811, "ECCENTRICITY": 0.00237378, "INCLINATION": 74.0353, "RA_OF_ASC_NODE": 315.979, "ARG_OF_PERICENTER": 34.4087, "MEAN_ANOMALY": 115.9286, "EPHEMERIS_TYPE": 0, "CLASSIFICATION_TYPE": "U", "NORAD_CAT_ID": 34818, "ELEMENT_SET_NO": 999, "REV_AT_EPOCH": 87221, "BSTAR": 0.00031365968, "MEAN_MOTION_DOT": 9.06e-06, "MEAN_MOTION_DDOT": 0}, "tle": {"line1": "1 34818U 93036ABH 25336.38507869  .00000906  00000+0  31366-3 0  9996", "line2": "2 34818  74.0353 315.9790 0023737  34.4087 115.9286 14.36943811872212"}}, "geometry": {"type": "Point", "coordinates": [-57.6889424700578, -30.320989737722652]}}, {"type": "Feature", "properties": {"norad_id": 34819, "name": "COSMOS 2251 DEB", "group": "cosmos-2251-debris", "lat": 3.356961097693154, "lon": -22.616875098710995, "alt_km": 680.3482658014718, "timestamp": "2025-12-04T13:52:00.836915+00:00", "meta": {"OBJECT_NAME": "COSMOS 2251 DEB", "OBJECT_ID": "1993-036ABJ", "EPOCH": "2025-12-04T05:40:34.334400", "MEAN_MOTION": 14.6376102, "ECCENTRICITY": 0.00160104, "INCLINATION": 74.0165, "RA_OF_ASC_NODE": 159.0021, "ARG_OF_PERICENTER": 252.5374, "MEAN_ANOMALY": 286.3826, "EPHEMERIS_TYPE": 0, "CLASSIFICATION_TYPE": "U", "NORAD_CAT_ID": 34819, "ELEMENT_SET_NO": 999, "REV_AT_EPOCH": 88104, "BSTAR": 0.0032806772, "MEAN_MOTION_DOT": 0.00017148, "MEAN_MOTION_DDOT": 0}, "tle": {"line1": "1 34819U 93036ABJ 25338.23650850  .00017148  00000+0  32807-2 0  9998", "line2": "2 34819  74.0165 159.0021 0016010 252.5374 286.3826 14.63761020881040"}}, "geometry": {"type": "Point", "coordinates": [-22.616875098710995, 3.356961097693154]}}, {"type": "Feature", "properties": {"norad_id": 34823, "name": "COSMOS 2251 DEB", "group": "cosmos-2251-debris", "lat": 51.10060453717384, "lon": -83.04423972805274, "alt_km": 681.4486853590952, "timestamp": "2025-12-04T13:52:00.836925+00:00", "meta": {"OBJECT_NAME": "COSMOS 2251 DEB", "OBJECT_ID": "1993-036ABN", "EPOCH": "2025-12-03T09:13:20.032032", "MEAN_MOTION": 14.54804511, "ECCENTRICITY": 0.01555596, "INCLINATION": 74.0395, "RA_OF_ASC_NODE": 119.9881, "ARG_OF_PERICENTER": 207.0513, "MEAN_ANOMALY": 152.2484, "EPHEMERIS_TYPE": 0, "CLASSIFICATION_TYPE": "U", "NORAD_CAT_ID": 34823, "ELEMENT_SET_NO": 999, "REV_AT_EPOCH": 88245, "BSTAR": 0.0013569091, "MEAN_MOTION_DOT": 6.819e-05, "MEAN_MOTION_DDOT": 0}, "tle": {"line1": "1 34823U 93036ABN 25337.38425963  .00006819  00000+0  13569-2 0  9990", "line2": "2 34823  74.0395 119.9881 0155559 207.0513 152.2484 14.54804511882451"}}, "geometry": {"type": "Point", "coordinates": [-83.04423972805274, 51.10060453717384]}}, {"type": "Feature", "properties": {"norad_id": 34845, "name": "COSMOS 2251 DEB", "group": "cosmos-2251-debris", "lat": 0.9279013099436775, "lon": 163.8545855959101, "alt_km": 729.2072620832105, "timestamp": "2025-12-04T13:52:00.836935+00:00", "meta": {"OBJECT_NAME": "COSMOS 2251 DEB", "OBJECT_ID": "1993-036ABP", "EPOCH": "2025-11-28T06:44:43.474272", "MEAN_MOTION": 14.45815545, "ECCENTRICITY": 0.00217969, "INCLINATION": 74.024, "RA_OF_ASC_NODE": 175.3373, "ARG_OF_PERICENTER": 338.6212, "MEAN_ANOMALY": 21.4033, "EPHEMERIS_TYPE": 0, "CLASSIFICATION_TYPE": "U", "NORAD_CAT_ID": 34845, "ELEMENT_SET_NO": 999, "REV_AT_EPOCH": 87257, "BSTAR": 0.00025523358, "MEAN_MOTION_DOT": 8.81e-06, "MEAN_MOTION_DDOT": 0}, "tle": {"line1": "1 34845U 93036ABP 25332.28105873  .00000881  00000+0  25523-3 0  9990", "line2": "2 34845  74.0240 175.3373 0021796 338.6212  21.4033 14.45815545872576"}}, "geometry": {"type": "Point", "coordinates": [163.8545855959101, 0.9279013099436775]}}, {"type": "Feature", "properties": {"norad_id": 34846, "name": "COSMOS 2251 DEB", "group": "cosmos-2251-debris", "lat": -71.68689006111711, "lon": 156.94005416942883, "alt_km": 739.8723481189991, "timestamp": "2025-12-04T13:52:00.836963+00:00", "meta": {"OBJECT_NAME": "COSMOS 2251 DEB", "OBJECT_ID": "1993-036ABQ", "EPOCH": "2025-12-03T15:05:39.836256", "MEAN_MOTION": 14.47111801, "ECCENTRICITY": 0.00259036, "INCLINATION": 74.031, "RA_OF_ASC_NODE": 278.8114, "ARG_OF_PERICENTER": 346.4186, "MEAN_ANOMALY": 13.6272, "EPHEMERIS_TYPE": 0, "CLASSIFICATION_TYPE": "U", "NORAD_CAT_ID": 34846, "ELEMENT_SET_NO": 999, "REV_AT_EPOCH": 87272, "BSTAR": 0.0014933673, "MEAN_MOTION_DOT": 5.444e-05, "MEAN_MOTION_DDOT": 0}, "tle": {"line1": "1 34846U 93036ABQ 25337.62893329  .00005444  00000+0  14934-2 0  9997", "line2": "2 34846  74.0310 278.8114 0025903 346.4186  13.6272 14.47111801872729"}}, "geometry": {"type": "Point", "coordinates": [156.94005416942883, -71.68689006111711]}}, {"type": "Feature", "properties": {"norad_id": 34852, "name": "COSMOS 2251 DEB", "group": "cosmos-2251-debris", "lat": -73.49113932753201, "lon": 173.00796729036415, "alt_km": 780.612032268712, "timestamp": "2025-12-04T13:52:00.836974+00:00", "meta": {"OBJECT_NAME": "COSMOS 2251 DEB", "OBJECT_ID": "1993-036ABW", "EPOCH": "2025-12-02T05:29:46.536576", "MEAN_MOTION": 14.36991388, "ECCENTRICITY": 0.0015746, "INCLINATION": 74.0326, "RA_OF_ASC_NODE": 282.3019, "ARG_OF_PERICENTER": 28.2884, "MEAN_ANOMALY": 331.9121, "EPHEMERIS_TYPE": 0, "CLASSIFICATION_TYPE": "U", "NORAD_CAT_ID": 34852, "ELEMENT_SET_NO": 999, "REV_AT_EPOCH": 87383, "BSTAR": 0.00017468, "MEAN_MOTION_DOT": 4.92e-06, "MEAN_MOTION_DDOT": 0}, "tle": {"line1": "1 34852U 93036ABW 25336.22901084  .00000492  00000+0  17468-3 0  9991", "line2": "2 34852  74.0326 282.3019 0015746  28.2884 331.9121 14.36991388873837"}}, "geometry": {"type": "Point", "coordinates": [173.00796729036415, -73.49113932753201]}}, {"type": "Feature", "properties": {"norad_id": 34854, "name": "COSMOS 2251 DEB", "group": "cosmos-2251-debris", "lat": 73.93217076712622, "lon": -101.52669756728274, "alt_km": 676.7836981985529, "timestamp": "2025-12-04T13:52:00.836985+00:00", "meta": {"OBJECT_NAME": "COSMOS 2251 DEB", "OBJECT_ID": "1993-036ABY", "EPOCH": "2025-12-01T22:02:46.134528", "MEAN_MOTION": 14.76470003, "ECCENTRICITY": 0.00662316, "INCLINATION": 74.0289, "RA_OF_ASC_NODE": 179.791, "ARG_OF_PERICENTER": 293.6475, "MEAN_ANOMALY": 65.7756, "EPHEMERIS_TYPE": 0, "CLASSIFICATION_TYPE": "U", "NORAD_CAT_ID": 34854, "ELEMENT_SET_NO": 999, "REV_AT_EPOCH": 71722, "BSTAR": 0.00065989077, "MEAN_MOTION_DOT": 4.729e-05, "MEAN_MOTION_DDOT": 0}, "tle": {"line1": "1 34854U 93036ABY 25335.91858952  .00004729  00000+0  65989-3 0  9991", "line2": "2 34854  74.0289 179.7910 0066231 293.6475  65.7756 14.76470003717221"}}, "geometry": {"type": "Point", "coordinates": [-101.52669756728274, 73.93217076712622]}}, {"type": "Feature", "properties": {"norad_id": 34856, "name": "COSMOS 2251 DEB", "group": "cosmos-2251-debris", "lat": 25.10007790657835, "lon": 109.3535352433522, "alt_km": 569.5148870810608, "timestamp": "2025-12-04T13:52:00.836995+00:00", "meta": {"OBJECT_NAME": "COSMOS 2251 DEB", "OBJECT_ID": "1993-036ACA", "EPOCH": "2025-12-03T19:10:13.988064", "MEAN_MOTION": 15.05251833, "ECCENTRICITY": 0.00346135, "INCLINATION": 73.9972, "RA_OF_ASC_NODE": 103.2267, "ARG_OF_PERICENTER": 241.227, "MEAN_ANOMALY": 245.1465, "EPHEMERIS_TYPE": 0, "CLASSIFICATION_TYPE": "U", "NORAD_CAT_ID": 34856, "ELEMENT_SET_NO": 999, "REV_AT_EPOCH": 88977, "BSTAR": 0.0030177118, "MEAN_MOTION_DOT": 0.00043929, "MEAN_MOTION_DDOT": 0}, "tle": {"line1": "1 34856U 93036ACA 25337.79877301  .00043929  00000+0  30177-2 0  9995", "line2": "2 34856  73.9972 103.2267 0034613 241.2270 245.1465 15.05251833889770"}}, "geometry": {"type": "Point", "coordinates": [109.3535352433522, 25.10007790657835]}}, {"type": "Feature", "properties": {"norad_id": 34857, "name": "COSMOS 2251 DEB", "group": "cosmos-2251-debris", "lat": -25.671301263983334, "lon": 114.47593610007533, "alt_km": 698.2478438497146, "timestamp": "2025-12-04T13:52:00.837005+00:00", "meta": {"OBJECT_NAME": "COSMOS 2251 DEB", "OBJECT_ID": "1993-036ACB", "EPOCH": "2025-12-03T13:53:25.818720", "MEAN_MOTION": 14.58726098, "ECCENTRICITY": 0.00662035, "INCLINATION": 74.0144, "RA_OF_ASC_NODE": 124.2999, "ARG_OF_PERICENTER": 250.3429, "MEAN_ANOMALY": 238.0974, "EPHEMERIS_TYPE": 0, "CLASSIFICATION_TYPE": "U", "NORAD_CAT_ID": 34857, "ELEMENT_SET_NO": 999, "REV_AT_EPOCH": 87767, "BSTAR": 0.0017193547, "MEAN_MOTION_DOT": 8.251e-05, "MEAN_MOTION_DDOT": 0}, "tle": {"line1": "1 34857U 93036ACB 25337.57877105  .00008251  00000+0  17194-2 0  9997", "line2": "2 34857  74.0144 124.2999 0066203 250.3429 238.0974 14.58726098877675"}}, "geometry": {"type": "Point", "coordinates": [114.47593610007533, -25.671301263983334]}}, {"type": "Feature", "properties": {"norad_id": 34859, "name": "COSMOS 2251 DEB", "group": "cosmos-2251-debris", "lat": 61.63675523075752, "lon": 144.5869271769377, "alt_km": 525.1657915590667, "timestamp": "2025-12-04T13:52:00.837015+00:00", "meta": {"OBJECT_NAME": "COSMOS 2251 DEB", "OBJECT_ID": "1993-036ACD", "EPOCH": "2025-12-03T12:38:16.176768", "MEAN_MOTION": 15.12289472, "ECCENTRICITY": 0.00045468, "INCLINATION": 74.0347, "RA_OF_ASC_NODE": 358.7891, "ARG_OF_PERICENTER": 317.5487, "MEAN_ANOMALY": 195.1552, "EPHEMERIS_TYPE": 0, "CLASSIFICATION_TYPE": "U", "NORAD_CAT_ID": 34859, "ELEMENT_SET_NO": 999, "REV_AT_EPOCH": 88219, "BSTAR": 0.0058122279, "MEAN_MOTION_DOT": 0.0010206, "MEAN_MOTION_DDOT": 0}, "tle": {"line1": "1 34859U 93036ACD 25337.52657612  .00102060  00000+0  58122-2 0  9992", "line2": "2 34859  74.0347 358.7891 0004546 317.5487 195.1552 15.12289472882198"}}, "geometry": {"type": "Point", "coordinates": [144.5869271769377, 61.63675523075752]}}]}